{"fetched_at":"2026-03-29T16:36:15Z","count":15609,"tles":[{"name":"ICEYE-X26","line1":"1 56961U 23084AF  26087.88028237  .00079512  00000+0  51174-3 0  9999","line2":"2 56961  97.5780 245.2207 0001299 205.0430 155.0772 15.75954631156524","category":"Other"}]}